[{"OBJECT_NAME":"TIANHUI 2-02A","OBJECT_ID":"2021-074A","EPOCH":"2026-03-09T12:16:24.538368","MEAN_MOTION":15.16780969,"ECCENTRICITY":0.0001796,"INCLINATION":97.4829,"RA_OF_ASC_NODE":73.047,"ARG_OF_PERICENTER":100.814,"MEAN_ANOMALY":259.3296,"EPHEMERIS_TYPE":0,"CLASSIFICATION_TYPE":"U","NORAD_CAT_ID":49071,"ELEMENT_SET_NO":999,"REV_AT_EPOCH":25216,"BSTAR":0.00013771,"MEAN_MOTION_DOT":2.637e-5,"MEAN_MOTION_DDOT":0},{"OBJECT_NAME":"SUPERVIEW NEO-1 02","OBJECT_ID":"2022-043C","EPOCH":"2026-03-09T23:18:16.407072","MEAN_MOTION":15.15488211,"ECCENTRICITY":0.00011754,"INCLINATION":97.3469,"RA_OF_ASC_NODE":144.9918,"ARG_OF_PERICENTER":5.9221,"MEAN_ANOMALY":354.2026,"EPHEMERIS_TYPE":0,"CLASSIFICATION_TYPE":"U","NORAD_CAT_ID":52322,"ELEMENT_SET_NO":999,"REV_AT_EPOCH":21454,"BSTAR":0.00034150894,"MEAN_MOTION_DOT":6.402e-5,"MEAN_MOTION_DDOT":0}]
